STARLINK-1054
1 24759C 19074AY  21325.13588026  .00005527  00000-0  37028-3 0  3251
2 24759  53.0546  72.6305 0001266  76.8801 141.6929 15.06400451    11
